OBJECT_NAME,OBJECT_ID,EPOCH,MEAN_MOTION,ECCENTRICITY,INCLINATION,RA_OF_ASC_NODE,ARG_OF_PERICENTER,MEAN_ANOMALY,EPHEMERIS_TYPE,CLASSIFICATION_TYPE,NORAD_CAT_ID,ELEMENT_SET_NO,REV_AT_EPOCH,BSTAR,MEAN_MOTION_DOT,MEAN_MOTION_DDOT
TRITON-1,2013-066M,2026-07-04T05:53:55.328064,14.81764104,.00896928,97.8233,94.6639,177.6997,182.4647,0,U,39427,999,67661,.30121013E-3,.2491E-4,0
GOMX-1,2013-066Q,2026-07-04T06:38:49.405344,14.69517039,.01292394,97.6468,24.6603,23.2162,337.4811,0,U,39430,999,67242,.25289913E-3,.1654E-4,0
CUBEBUG-2 (LO-74),2013-066AA,2026-07-04T06:40:01.392960,14.93908765,.00564678,97.8916,134.3300,332.5565,27.2675,0,U,39440,999,67954,.54420898E-3,.5912E-4,0
NEE-02 KRYSAOR,2013-066AB,2026-07-04T07:19:04.058112,14.86701659,.00664374,97.8894,124.3983,15.0684,345.2490,0,U,39441,999,67874,.37715168E-3,.3432E-4,0
FUNCUBE-1 (AO-73),2013-066AE,2026-07-04T03:47:42.295488,15.09700275,.00373732,97.8284,156.9608,143.7626,216.6145,0,U,39444,999,68222,.54563342E-3,.8874E-4,0
UWE-3,2013-066AG,2026-07-04T03:00:48.152448,14.97148149,.00472649,97.8706,141.3160,263.1335,96.4508,0,U,39446,999,68011,.33626891E-3,.391E-4,0
SMDC ONE 2.4,2013-072H,2026-07-03T15:56:19.118688,15.18538861,.01471494,120.4915,55.7146,36.4228,324.6755,0,U,39469,999,12033,.55862661E-3,.15124E-3,0
COSMOS 2488 (RODNIK-S 7),2013-076A,2026-07-04T06:20:02.967936,12.42906003,.00208195,82.4844,158.0560,60.1521,300.1624,0,U,39483,999,56801,.33409972E-4,.15E-6,0
COSMOS 2489 (RODNIK-S 8),2013-076B,2026-07-04T07:40:46.479360,12.42879518,.00226345,82.4879,159.4055,59.8878,300.4442,0,U,39484,999,56807,-.34145205E-3,-.37E-6,0
COSMOS 2490 (RODNIK-S 9),2013-076C,2026-07-04T07:00:19.814400,12.42878652,.00228967,82.4827,157.4830,74.7604,285.6005,0,U,39485,999,56800,-.13967633E-3,-.9E-7,0
KAZEOSAT 1,2014-024A,2026-07-03T22:50:10.114944,14.42086207,.0001156,98.3202,256.9818,78.7649,281.3671,0,U,39731,999,64097,.36168555E-4,.76E-6,0
COSMOS 2496 (RODNIK-S 10),2014-028A,2026-07-04T07:55:02.407872,12.42879393,.00211927,82.4460,97.9956,43.5802,316.6947,0,U,39761,999,54964,.81098395E-3,.122E-5,0
COSMOS 2497 (RODNIK-S 11),2014-028B,2026-07-04T05:23:12.943968,12.42894937,.00216908,82.4509,99.7579,38.9986,321.2653,0,U,39762,999,54963,.4922166E-3,.78E-6,0
COSMOS 2498 (RODNIK-S 12),2014-028C,2026-07-04T06:45:10.378368,12.42980775,.00224109,82.4469,98.2020,38.4456,321.8215,0,U,39763,999,54967,.58334855E-3,.91E-6,0
HODOYOSHI-4,2014-033B,2026-07-04T07:32:59.180640,14.88164669,.00221706,97.5450,9.3098,247.8444,112.0420,0,U,40011,999,65135,.9259379E-4,.804E-5,0
UNISAT-6,2014-033C,2026-07-04T03:26:06.063072,14.88329213,.00451211,97.7902,337.5585,14.4000,345.8491,0,U,40012,999,64868,.31126203E-3,.2877E-4,0
DEIMOS-2,2014-033D,2026-07-04T06:21:29.881152,14.93771222,.00009516,97.5800,59.1517,78.4158,281.7169,0,U,40013,999,64027,.16861625E-3,.1733E-4,0
BUGSAT-1 (TITA),2014-033E,2026-07-04T06:24:38.128608,15.15784484,.00289216,98.0433,278.8166,121.6361,238.7698,0,U,40014,999,65842,.4124758E-3,.7884E-4,0
SAUDISAT 4,2014-033G,2026-07-03T10:01:07.368960,14.79565255,.00452525,97.7604,329.9924,22.3541,337.9630,0,U,40016,999,64847,.97935679E-4,.693E-5,0
APRIZESAT 9,2014-033J,2026-07-04T02:35:47.494176,14.74240561,.00669493,97.9082,317.8950,144.9700,215.5940,0,U,40018,999,64605,.14227742E-3,.922E-5,0
BRITE-CA1 (TORONTO),2014-033L,2026-07-04T02:12:10.357056,14.72706062,.00776807,97.9761,313.7101,222.0405,137.4826,0,U,40020,999,64470,.18343689E-3,.1173E-4,0
